OBJECT_NAME,OBJECT_ID,EPOCH,MEAN_MOTION,ECCENTRICITY,INCLINATION,RA_OF_ASC_NODE,ARG_OF_PERICENTER,MEAN_ANOMALY,EPHEMERIS_TYPE,CLASSIFICATION_TYPE,NORAD_CAT_ID,ELEMENT_SET_NO,REV_AT_EPOCH,BSTAR,MEAN_MOTION_DOT,MEAN_MOTION_DDOT
FLOCK 4BE-27,2024-149AX,2026-07-13T00:21:14.463072,15.34892241,.00037625,97.3827,275.8845,188.8300,171.2878,0,U,60513,999,10610,.18553534E-3,.6198E-4,0
FLOCK 4BE-9,2024-149AY,2026-07-12T16:07:16.453344,15.41542438,.00035629,97.3800,278.2012,176.7939,183.3331,0,U,60514,999,10624,.23601759E-3,.9825E-4,0
FLOCK 4BE-6,2024-149BA,2026-07-13T01:06:09.596160,15.40278066,.00040477,97.3793,277.8889,178.9597,181.1659,0,U,60516,999,10625,.26669905E-3,.10658E-3,0
FLOCK 4BE-14,2024-149BB,2026-07-13T04:47:34.537056,15.41812912,.00051334,97.3700,278.2054,182.8591,177.2628,0,U,60517,999,10633,.26050959E-3,.10956E-3,0
FLOCK 4BE-1,2024-149BC,2026-07-13T04:31:01.235136,15.43464541,.00048322,97.3784,279.5656,182.1000,178.0228,0,U,60518,999,10638,.26728305E-3,.11884E-3,0
FLOCK 4BE-28,2024-149BD,2026-07-12T18:34:20.188992,15.46154633,.00047246,97.3756,279.9525,182.0589,178.0642,0,U,60519,999,10639,.7683614E-3,.37733E-3,0
IPERDRONE.0,2024-149BE,2026-07-12T18:13:25.966848,15.70745860,.00041458,97.3774,288.3082,173.7113,186.4202,0,U,60520,999,10692,.66112E-3,.82385E-3,0
TRANSPORTER-11 OBJECT BF,2024-149BF,2026-07-12T19:35:08.822976,16.06504009,.00101474,97.3796,292.0876,243.3863,116.6380,0,U,60521,999,10716,.11419891E-2,.850113E-2,.38417181E-3
CONNECTA IOT-2,2024-149BG,2026-07-12T18:51:24.563808,15.24182948,.00053609,97.3839,271.5455,222.5825,137.4997,0,U,60522,999,10579,.11733701E-3,.2787E-4,0
CONNECTA IOT-4,2024-149BJ,2026-07-13T00:34:54.014592,15.43114556,.00058282,97.3802,278.7160,182.0354,178.0871,0,U,60524,999,10631,.34358959E-3,.15132E-3,0
ORESAT0.5,2024-149BK,2026-07-12T18:09:39.487392,15.46046803,.0006019,97.3729,280.1642,172.7670,187.3668,0,U,60525,999,10642,.31438994E-3,.15289E-3,0
DEIMOS,2024-149BL,2026-07-12T19:17:04.380288,15.45135168,.00057312,97.3787,280.3384,176.8884,183.2401,0,U,60526,999,10640,.31429974E-3,.14813E-3,0
CUAVA-2,2024-149BM,2026-07-12T17:51:24.566112,15.36698332,.00066287,97.3730,275.3153,188.2996,171.8140,0,U,60527,999,10609,.24588462E-3,.8738E-4,0
ERNST,2024-149BN,2026-07-11T00:34:31.362240,15.39824000,.00057878,97.3807,275.9318,194.1304,165.9781,0,U,60528,999,10594,.21573753E-3,.8478E-4,0
TORO,2024-149BQ,2026-07-13T04:24:20.542176,14.96514380,.0001199,97.6781,268.3664,94.0686,266.0672,0,U,60530,999,10384,.47302012E-4,.481E-5,0
HYPSO-2,2024-149BR,2026-07-12T23:16:27.465312,14.98928139,.00019348,97.6844,269.8551,100.8056,259.3385,0,U,60531,999,10391,.16868357E-3,.1981E-4,0
LEMU NGE,2024-149BS,2026-07-12T18:04:01.135488,14.95054105,.00006302,97.6835,268.1960,75.6866,284.4425,0,U,60532,999,10377,.14630338E-3,.1545E-4,0
LEMUR-2-STELLA,2024-149BT,2026-07-13T05:18:28.283616,15.12347707,.0001238,97.6740,276.7986,110.4847,249.6517,0,U,60533,999,10443,.36958061E-3,.6342E-4,0
SATELIOT_2,2024-149BU,2026-07-13T00:54:48.436704,14.96455972,.00017362,97.6825,268.5228,78.3222,281.8194,0,U,60534,999,10383,.96171896E-4,.1034E-4,0
NIGHTJAR,2024-149BV,2026-07-13T03:46:47.374464,14.99160551,.00025594,97.6836,270.4994,100.7592,259.3919,0,U,60535,999,14676,.19565469E-3,.2322E-4,0
LEMUR-2-MARHISYAM,2024-149BW,2026-07-13T00:18:19.714752,15.11754239,.00027158,97.6885,277.0636,73.2664,286.8864,0,U,60536,999,10438,.39418223E-3,.6657E-4,0
SATELIOT_4,2024-149BX,2026-07-12T17:01:30.534816,14.96755981,.00012787,97.6735,267.7102,3.3639,356.7591,0,U,60537,999,10379,.53333462E-4,.553E-5,0
PICO-02A021,2024-149BY,2026-07-08T17:33:38.084256,15.03460922,.00032008,97.6747,268.3815,317.3767,42.7209,0,U,60538,999,10297,.19830685E-3,.264E-4,0
ICEYE-X43,2024-149BZ,2026-07-12T18:47:36.027168,14.99783872,.000657,97.6811,270.4044,357.7584,2.3608,0,U,60539,999,10395,.10145677E-3,.1196E-4,0
HAWK-10A,2024-149CA,2026-07-12T18:39:51.431904,14.96590356,.00033849,97.6892,269.2496,14.2777,345.8539,0,U,60540,999,10381,.54060649E-4,.558E-5,0
UMBRA-09,2024-149CB,2026-07-12T20:01:06.342816,15.18803617,.00018198,97.6981,281.4906,204.7083,155.4064,0,U,60541,999,10461,.48172993E-3,.9959E-4,0
QPS-SAR-8 (AMATERU-IV),2024-149CC,2026-07-13T04:51:57.414240,15.04386649,.00040709,97.6667,273.1376,50.7763,309.3823,0,U,60542,999,10418,.18303271E-3,.2494E-4,0
ARCTIC WEATHER SATELLITE,2024-149CD,2026-07-12T17:50:25.772640,14.89801613,.0003024,97.6793,263.4773,54.6107,305.5393,0,U,60543,999,10310,.62163024E-4,.543E-5,0
CAPELLA-15 (ACADIA-5),2024-149CE,2026-07-12T06:20:34.008000,14.92404893,.00038053,97.6768,265.5399,352.3525,7.7636,0,U,60544,999,10359,.19496627E-3,.1941E-4,0
HAWK-10B,2024-149CF,2026-07-12T18:39:39.435264,14.96589458,.00057186,97.6811,268.5786,23.3723,336.7757,0,U,60545,999,10381,.46372254E-4,.471E-5,0
