FLOCK 4BE-27            
1 60513U 24149AX  26194.01475073  .00006198  00000+0  18554-3 0  9993
2 60513  97.3827 275.8845 0003762 188.8300 171.2878 15.34892241106109
FLOCK 4BE-9             
1 60514U 24149AY  26193.67171821  .00009825  00000+0  23602-3 0  9999
2 60514  97.3800 278.2012 0003562 176.7939 183.3331 15.41542438106247
FLOCK 4BE-6             
1 60516U 24149BA  26194.04594440  .00010658  00000+0  26670-3 0  9993
2 60516  97.3793 277.8889 0004047 178.9597 181.1659 15.40278066106252
FLOCK 4BE-14            
1 60517U 24149BB  26194.19970529  .00010956  00000+0  26051-3 0  9990
2 60517  97.3700 278.2054 0005133 182.8591 177.2628 15.41812912106331
FLOCK 4BE-1             
1 60518U 24149BC  26194.18820874  .00011884  00000+0  26728-3 0  9999
2 60518  97.3784 279.5656 0004832 182.1000 178.0228 15.43464541106382
FLOCK 4BE-28            
1 60519U 24149BD  26193.77384478  .00037733  00000+0  76836-3 0  9995
2 60519  97.3756 279.9525 0004724 182.0589 178.0642 15.46154633106394
IPERDRONE.0             
1 60520U 24149BE  26193.75932832  .00082385  00000+0  66112-3 0  9997
2 60520  97.3774 288.3082 0004145 173.7113 186.4202 15.70745860106924
TRANSPORTER-11 OBJECT BF
1 60521U 24149BF  26193.81607434  .00850113  38417-3  11420-2 0  9992
2 60521  97.3796 292.0876 0010147 243.3863 116.6380 16.06504009107164
CONNECTA IOT-2          
1 60522U 24149BG  26193.78570097  .00002787  00000+0  11734-3 0  9991
2 60522  97.3839 271.5455 0005360 222.5825 137.4997 15.24182948105791
CONNECTA IOT-4          
1 60524U 24149BJ  26194.02423628  .00015132  00000+0  34359-3 0  9994
2 60524  97.3802 278.7160 0005828 182.0354 178.0871 15.43114556106313
ORESAT0.5               
1 60525U 24149BK  26193.75670703  .00015289  00000+0  31439-3 0  9991
2 60525  97.3729 280.1642 0006019 172.7670 187.3668 15.46046803106425
DEIMOS                  
1 60526U 24149BL  26193.80352292  .00014813  00000+0  31430-3 0  9991
2 60526  97.3787 280.3384 0005731 176.8884 183.2401 15.45135168106407
CUAVA-2                 
1 60527U 24149BM  26193.74403433  .00008738  00000+0  24588-3 0  9994
2 60527  97.3730 275.3153 0006628 188.2996 171.8140 15.36698332106096
ERNST                   
1 60528U 24149BN  26192.02397410  .00008478  00000+0  21574-3 0  9995
2 60528  97.3807 275.9318 0005787 194.1304 165.9781 15.39824000105949
TORO                    
1 60530U 24149BQ  26194.18357109  .00000481  00000+0  47302-4 0  9992
2 60530  97.6781 268.3664 0001199  94.0686 266.0672 14.96514380103848
HYPSO-2                 
1 60531U 24149BR  26193.96976233  .00001981  00000+0  16868-3 0  9991
2 60531  97.6844 269.8551 0001934 100.8056 259.3385 14.98928139103911
LEMU NGE                
1 60532U 24149BS  26193.75279092  .00001545  00000+0  14630-3 0  9999
2 60532  97.6835 268.1960 0000630  75.6866 284.4425 14.95054105103776
LEMUR-2-STELLA          
1 60533U 24149BT  26194.22116069  .00006342  00000+0  36958-3 0  9994
2 60533  97.6740 276.7986 0001238 110.4847 249.6517 15.12347707104439
SATELIOT_2              
1 60534U 24149BU  26194.03806061  .00001034  00000+0  96172-4 0  9990
2 60534  97.6825 268.5228 0001736  78.3222 281.8194 14.96455972103831
NIGHTJAR                
1 60535U 24149BV  26194.15749276  .00002322  00000+0  19565-3 0  9999
2 60535  97.6836 270.4994 0002559 100.7592 259.3919 14.99160551146763
LEMUR-2-MARHISYAM       
1 60536U 24149BW  26194.01272818  .00006657  00000+0  39418-3 0  9992
2 60536  97.6885 277.0636 0002715  73.2664 286.8864 15.11754239104385
SATELIOT_4              
1 60537U 24149BX  26193.70938119  .00000553  00000+0  53333-4 0  9993
2 60537  97.6735 267.7102 0001278   3.3639 356.7591 14.96755981103798
PICO-02A021             
1 60538U 24149BY  26189.73169079  .00002640  00000+0  19831-3 0  9996
2 60538  97.6747 268.3815 0003200 317.3767  42.7209 15.03460922102971
ICEYE-X43               
1 60539U 24149BZ  26193.78305587  .00001196  00000+0  10146-3 0  9998
2 60539  97.6811 270.4044 0006570 357.7584   2.3608 14.99783872103950
HAWK-10A                
1 60540U 24149CA  26193.77767861  .00000558  00000+0  54061-4 0  9992
2 60540  97.6892 269.2496 0003384  14.2777 345.8539 14.96590356103810
UMBRA-09                
1 60541U 24149CB  26193.83410119  .00009959  00000+0  48173-3 0  9991
2 60541  97.6981 281.4906 0001819 204.7083 155.4064 15.18803617104618
QPS-SAR-8 (AMATERU-IV)  
1 60542U 24149CC  26194.20274785  .00002494  00000+0  18303-3 0  9990
2 60542  97.6667 273.1376 0004070  50.7763 309.3823 15.04386649104186
ARCTIC WEATHER SATELLITE
1 60543U 24149CD  26193.74335385  .00000543  00000+0  62163-4 0  9990
2 60543  97.6793 263.4773 0003024  54.6107 305.5393 14.89801613103109
CAPELLA-15 (ACADIA-5)   
1 60544U 24149CE  26193.26428250  .00001941  00000+0  19497-3 0  9996
2 60544  97.6768 265.5399 0003805 352.3525   7.7636 14.92404893103595
HAWK-10B                
1 60545U 24149CF  26193.77753976  .00000471  00000+0  46372-4 0  9999
2 60545  97.6811 268.5786 0005718  23.3723 336.7757 14.96589458103817
